{"type": "FeatureCollection", "features": [{"type": "Feature", "properties": {"norad_id": 28054, "name": "DMSP 5D-3 F16 (USA 172)", "group": "weather", "lat": 38.66609848178047, "lon": 0.35668752500510054, "alt_km": 841.2151949838408, "timestamp": "2025-12-16T03:53:26.700778+00:00", "meta": {"OBJECT_NAME": "DMSP 5D-3 F16 (USA 172)", "OBJECT_ID": "2003-048A", "EPOCH": "2025-12-15T07:22:56.847360", "MEAN_MOTION": 14.14425138, "ECCENTRICITY": 0.00064142, "INCLINATION": 99.0045, "RA_OF_ASC_NODE": 6.7849, "ARG_OF_PERICENTER": 312.7854, "MEAN_ANOMALY": 57.7675, "EPHEMERIS_TYPE": 0, "CLASSIFICATION_TYPE": "U", "NORAD_CAT_ID": 28054, "ELEMENT_SET_NO": 999, "REV_AT_EPOCH": 14349, "BSTAR": 0.00010012523, "MEAN_MOTION_DOT": 1.46e-06, "MEAN_MOTION_DDOT": 0}, "tle": {"line1": "1 28054U 03048A   25349.30760240  .00000146  00000+0  10013-3 0  9997", "line2": "2 28054  99.0045   6.7849 0006414 312.7854  57.7675 14.14425138143498"}}, "geometry": {"type": "Point", "coordinates": [0.35668752500510054, 38.66609848178047]}}, {"type": "Feature", "properties": {"norad_id": 28912, "name": "METEOSAT-9 (MSG-2)", "group": "weather", "lat": 6.506973028608878, "lon": -170.52144219691556, "alt_km": 35775.490141301714, "timestamp": "2025-12-16T03:53:26.700828+00:00", "meta": {"OBJECT_NAME": "METEOSAT-9 (MSG-2)", "OBJECT_ID": "2005-049B", "EPOCH": "2025-12-14T20:28:58.105920", "MEAN_MOTION": 1.00277785, "ECCENTRICITY": 0.00034635, "INCLINATION": 8.9443, "RA_OF_ASC_NODE": 55.9576, "ARG_OF_PERICENTER": 190.3474, "MEAN_ANOMALY": 190.418, "EPHEMERIS_TYPE": 0, "CLASSIFICATION_TYPE": "U", "NORAD_CAT_ID": 28912, "ELEMENT_SET_NO": 999, "REV_AT_EPOCH": 515, "BSTAR": 0, "MEAN_MOTION_DOT": 1.37e-06, "MEAN_MOTION_DDOT": 0}, "tle": {"line1": "1 28912U 05049B   25348.85345030  .00000137  00000+0  00000+0 0  9999", "line2": "2 28912   8.9443  55.9576 0003463 190.3474 190.4180  1.00277785  5154"}}, "geometry": {"type": "Point", "coordinates": [-170.52144219691556, 6.506973028608878]}}, {"type": "Feature", "properties": {"norad_id": 29522, "name": "DMSP 5D-3 F17 (USA 191)", "group": "weather", "lat": -14.212223404979072, "lon": -2.287379990265671, "alt_km": 851.6583713656955, "timestamp": "2025-12-16T03:53:26.700846+00:00", "meta": {"OBJECT_NAME": "DMSP 5D-3 F17 (USA 191)", "OBJECT_ID": "2006-050A", "EPOCH": "2025-12-15T05:53:44.063232", "MEAN_MOTION": 14.14920723, "ECCENTRICITY": 0.00095089, "INCLINATION": 98.7393, "RA_OF_ASC_NODE": 354.5826, "ARG_OF_PERICENTER": 217.1641, "MEAN_ANOMALY": 142.8875, "EPHEMERIS_TYPE": 0, "CLASSIFICATION_TYPE": "U", "NORAD_CAT_ID": 29522, "ELEMENT_SET_NO": 999, "REV_AT_EPOCH": 98640, "BSTAR": 0.00011827011, "MEAN_MOTION_DOT": 1.85e-06, "MEAN_MOTION_DDOT": 0}, "tle": {"line1": "1 29522U 06050A   25349.24564888  .00000185  00000+0  11827-3 0  9994", "line2": "2 29522  98.7393 354.5826 0009508 217.1641 142.8875 14.14920723986403"}}, "geometry": {"type": "Point", "coordinates": [-2.287379990265671, -14.212223404979072]}}, {"type": "Feature", "properties": {"norad_id": 32958, "name": "FENGYUN 3A", "group": "weather", "lat": 62.462321538923604, "lon": 126.63245997755047, "alt_km": 826.4878123726885, "timestamp": "2025-12-16T03:53:26.700864+00:00", "meta": {"OBJECT_NAME": "FENGYUN 3A", "OBJECT_ID": "2008-026A", "EPOCH": "2025-12-15T08:44:11.760000", "MEAN_MOTION": 14.19515493, "ECCENTRICITY": 0.00078075, "INCLINATION": 98.6699, "RA_OF_ASC_NODE": 288.8355, "ARG_OF_PERICENTER": 302.1642, "MEAN_ANOMALY": 57.8777, "EPHEMERIS_TYPE": 0, "CLASSIFICATION_TYPE": "U", "NORAD_CAT_ID": 32958, "ELEMENT_SET_NO": 999, "REV_AT_EPOCH": 90932, "BSTAR": 7.658007e-05, "MEAN_MOTION_DOT": 1.18e-06, "MEAN_MOTION_DDOT": 0}, "tle": {"line1": "1 32958U 08026A   25349.36402500  .00000118  00000+0  76580-4 0  9995", "line2": "2 32958  98.6699 288.8355 0007807 302.1642  57.8777 14.19515493909321"}}, "geometry": {"type": "Point", "coordinates": [126.63245997755047, 62.462321538923604]}}, {"type": "Feature", "properties": {"norad_id": 35491, "name": "GOES 14", "group": "weather", "lat": -0.9590165765961514, "lon": 31.501499502836793, "alt_km": 35837.340324751414, "timestamp": "2025-12-16T03:53:26.700880+00:00", "meta": {"OBJECT_NAME": "GOES 14", "OBJECT_ID": "2009-033A", "EPOCH": "2025-12-15T07:53:38.605056", "MEAN_MOTION": 1.0009647, "ECCENTRICITY": 6.158e-05, "INCLINATION": 1.2094, "RA_OF_ASC_NODE": 85.3721, "ARG_OF_PERICENTER": 168.3224, "MEAN_ANOMALY": 197.5601, "EPHEMERIS_TYPE": 0, "CLASSIFICATION_TYPE": "U", "NORAD_CAT_ID": 35491, "ELEMENT_SET_NO": 999, "REV_AT_EPOCH": 475, "BSTAR": 0, "MEAN_MOTION_DOT": -1e-08, "MEAN_MOTION_DDOT": 0}, "tle": {"line1": "1 35491U 09033A   25349.32891904 -.00000001  00000+0  00000+0 0  9996", "line2": "2 35491   1.2094  85.3721 0000615 168.3224 197.5601  1.00096470  4756"}}, "geometry": {"type": "Point", "coordinates": [31.501499502836793, -0.9590165765961514]}}, {"type": "Feature", "properties": {"norad_id": 35951, "name": "DMSP 5D-3 F18 (USA 210)", "group": "weather", "lat": -30.982485745886578, "lon": 141.15709717773294, "alt_km": 857.0594579802109, "timestamp": "2025-12-16T03:53:26.700892+00:00", "meta": {"OBJECT_NAME": "DMSP 5D-3 F18 (USA 210)", "OBJECT_ID": "2009-057A", "EPOCH": "2025-12-15T06:31:40.265184", "MEAN_MOTION": 14.14770702, "ECCENTRICITY": 0.00120072, "INCLINATION": 98.8836, "RA_OF_ASC_NODE": 325.6601, "ARG_OF_PERICENTER": 56.1241, "MEAN_ANOMALY": 304.1073, "EPHEMERIS_TYPE": 0, "CLASSIFICATION_TYPE": "U", "NORAD_CAT_ID": 35951, "ELEMENT_SET_NO": 999, "REV_AT_EPOCH": 83358, "BSTAR": 0.00017774329, "MEAN_MOTION_DOT": 2.98e-06, "MEAN_MOTION_DDOT": 0}, "tle": {"line1": "1 35951U 09057A   25349.27199381  .00000298  00000+0  17774-3 0  9994", "line2": "2 35951  98.8836 325.6601 0012007  56.1241 304.1073 14.14770702833587"}}, "geometry": {"type": "Point", "coordinates": [141.15709717773294, -30.982485745886578]}}, {"type": "Feature", "properties": {"norad_id": 36411, "name": "EWS-G2 (GOES 15)", "group": "weather", "lat": 0.7035427968864835, "lon": -155.25863089020118, "alt_km": 35773.49282166752, "timestamp": "2025-12-16T03:53:26.700906+00:00", "meta": {"OBJECT_NAME": "EWS-G2 (GOES 15)", "OBJECT_ID": "2010-008A", "EPOCH": "2025-12-15T05:07:10.727904", "MEAN_MOTION": 1.00270391, "ECCENTRICITY": 0.00055899, "INCLINATION": 0.8199, "RA_OF_ASC_NODE": 86.0739, "ARG_OF_PERICENTER": 175.9178, "MEAN_ANOMALY": 320.3138, "EPHEMERIS_TYPE": 0, "CLASSIFICATION_TYPE": "U", "NORAD_CAT_ID": 36411, "ELEMENT_SET_NO": 999, "REV_AT_EPOCH": 5779, "BSTAR": 0, "MEAN_MOTION_DOT": 5.9e-07, "MEAN_MOTION_DDOT": 0}, "tle": {"line1": "1 36411U 10008A   25349.21331861  .00000059  00000+0  00000+0 0  9994", "line2": "2 36411   0.8199  86.0739 0005589 175.9178 320.3138  1.00270391 57793"}}, "geometry": {"type": "Point", "coordinates": [-155.25863089020118, 0.7035427968864835]}}, {"type": "Feature", "properties": {"norad_id": 36744, "name": "COMS 1", "group": "weather", "lat": -1.0465794226830045, "lon": -88.45491863221191, "alt_km": 35782.86812167083, "timestamp": "2025-12-16T03:53:26.700920+00:00", "meta": {"OBJECT_NAME": "COMS 1", "OBJECT_ID": "2010-032A", "EPOCH": "2025-12-15T05:26:08.911392", "MEAN_MOTION": 1.00272011, "ECCENTRICITY": 8.103e-05, "INCLINATION": 4.3467, "RA_OF_ASC_NODE": 77.9715, "ARG_OF_PERICENTER": 191.9681, "MEAN_ANOMALY": 23.9012, "EPHEMERIS_TYPE": 0, "CLASSIFICATION_TYPE": "U", "NORAD_CAT_ID": 36744, "ELEMENT_SET_NO": 999, "REV_AT_EPOCH": 4924, "BSTAR": 0, "MEAN_MOTION_DOT": -3.26e-06, "MEAN_MOTION_DDOT": 0}, "tle": {"line1": "1 36744U 10032A   25349.22649203 -.00000326  00000+0  00000+0 0  9991", "line2": "2 36744   4.3467  77.9715 0000810 191.9681  23.9012  1.00272011 49240"}}, "geometry": {"type": "Point", "coordinates": [-88.45491863221191, -1.0465794226830045]}}, {"type": "Feature", "properties": {"norad_id": 37214, "name": "FENGYUN 3B", "group": "weather", "lat": 3.7959296080363023, "lon": -149.23477744931043, "alt_km": 861.1241602005966, "timestamp": "2025-12-16T03:53:26.700932+00:00", "meta": {"OBJECT_NAME": "FENGYUN 3B", "OBJECT_ID": "2010-059A", "EPOCH": "2025-12-15T08:40:36.295680", "MEAN_MOTION": 14.14789491, "ECCENTRICITY": 0.00219526, "INCLINATION": 98.9912, "RA_OF_ASC_NODE": 29.3572, "ARG_OF_PERICENTER": 350.4509, "MEAN_ANOMALY": 70.3265, "EPHEMERIS_TYPE": 0, "CLASSIFICATION_TYPE": "U", "NORAD_CAT_ID": 37214, "ELEMENT_SET_NO": 999, "REV_AT_EPOCH": 78143, "BSTAR": -6.0019536e-05, "MEAN_MOTION_DOT": -1.62e-06, "MEAN_MOTION_DDOT": 0}, "tle": {"line1": "1 37214U 10059A   25349.36153120 -.00000162  00000+0 -60020-4 0  9998", "line2": "2 37214  98.9912  29.3572 0021952 350.4509  70.3265 14.14789491781434"}}, "geometry": {"type": "Point", "coordinates": [-149.23477744931043, 3.7959296080363023]}}, {"type": "Feature", "properties": {"norad_id": 37849, "name": "SUOMI NPP", "group": "weather", "lat": 72.58262637899966, "lon": -102.03238081215619, "alt_km": 818.6667533865138, "timestamp": "2025-12-16T03:53:26.700944+00:00", "meta": {"OBJECT_NAME": "SUOMI NPP", "OBJECT_ID": "2011-061A", "EPOCH": "2025-12-15T07:14:21.196608", "MEAN_MOTION": 14.19514971, "ECCENTRICITY": 0.00023307, "INCLINATION": 98.7775, "RA_OF_ASC_NODE": 286.6201, "ARG_OF_PERICENTER": 115.5144, "MEAN_ANOMALY": 244.6274, "EPHEMERIS_TYPE": 0, "CLASSIFICATION_TYPE": "U", "NORAD_CAT_ID": 37849, "ELEMENT_SET_NO": 999, "REV_AT_EPOCH": 73235, "BSTAR": 7.0765077e-05, "MEAN_MOTION_DOT": 1.05e-06, "MEAN_MOTION_DDOT": 0}, "tle": {"line1": "1 37849U 11061A   25349.30163422  .00000105  00000+0  70765-4 0  9998", "line2": "2 37849  98.7775 286.6201 0002330 115.5144 244.6274 14.19514971732351"}}, "geometry": {"type": "Point", "coordinates": [-102.03238081215619, 72.58262637899966]}}]}